[{"OBJECT_NAME":"STARLINK-36228","OBJECT_ID":"2025-298X","EPOCH":"2026-03-09T22:44:16.822752","MEAN_MOTION":14.99133349,"ECCENTRICITY":0.00029437,"INCLINATION":70.0014,"RA_OF_ASC_NODE":13.8926,"ARG_OF_PERICENTER":274.4183,"MEAN_ANOMALY":85.664,"EPHEMERIS_TYPE":0,"CLASSIFICATION_TYPE":"U","NORAD_CAT_ID":67096,"ELEMENT_SET_NO":999,"REV_AT_EPOCH":1325,"BSTAR":0.00053016163,"MEAN_MOTION_DOT":6.371e-5,"MEAN_MOTION_DDOT":0},{"OBJECT_NAME":"COSMOS 886 DEB","OBJECT_ID":"1976-126AL","EPOCH":"2026-03-09T21:13:20.080416","MEAN_MOTION":13.32330466,"ECCENTRICITY":0.08525222,"INCLINATION":65.8124,"RA_OF_ASC_NODE":304.1373,"ARG_OF_PERICENTER":74.0234,"MEAN_ANOMALY":295.2959,"EPHEMERIS_TYPE":0,"CLASSIFICATION_TYPE":"U","NORAD_CAT_ID":9824,"ELEMENT_SET_NO":999,"REV_AT_EPOCH":34144,"BSTAR":0.00076028605,"MEAN_MOTION_DOT":3.095e-5,"MEAN_MOTION_DDOT":0}]
